{
  "type": "FeatureCollection",
  "features": [
    {
      "type": "Feature",
      "properties": {
        "norad_id": 38797,
        "name": "FENGYUN 1C DEB",
        "group": "fengyun-1c-debris",
        "lat": -75.2787163811083,
        "lon": -90.17469205720822,
        "alt_km": 887.8586757898893,
        "timestamp": "2025-12-03T04:52:29.927348+00:00",
        "meta_object_name": "FENGYUN 1C DEB",
        "meta_object_id": "1999-025EUM",
        "meta_epoch": "2025-11-30T10:14:26.576736",
        "meta_mean_motion": 13.61600271,
        "meta_eccentricity": 0.0245151,
        "meta_inclination": 99.4842,
        "meta_ra_of_asc_node": 227.6164,
        "meta_arg_of_pericenter": 252.8829,
        "meta_mean_anomaly": 104.5333,
        "meta_ephemeris_type": 0,
        "meta_classification_type": "U",
        "meta_norad_cat_id": 38797,
        "meta_element_set_no": 999,
        "meta_rev_at_epoch": 59115,
        "meta_bstar": 0.00033810618,
        "meta_mean_motion_dot": 2.71e-06,
        "meta_mean_motion_ddot": 0,
        "tle_line1": "1 38797U 99025EUM 25334.42669649  .00000271  00000+0  33811-3 0  9990",
        "tle_line2": "2 38797  99.4842 227.6164 0245151 252.8829 104.5333 13.61600271591151"
      },
      "geometry": {
        "type": "Point",
        "coordinates": [
          -90.17469205720822,
          -75.2787163811083
        ]
      }
    },
    {
      "type": "Feature",
      "properties": {
        "norad_id": 38799,
        "name": "FENGYUN 1C DEB",
        "group": "fengyun-1c-debris",
        "lat": -4.572782942203786,
        "lon": -127.98135558475508,
        "alt_km": 846.7380396902763,
        "timestamp": "2025-12-03T04:52:29.927358+00:00",
        "meta_object_name": "FENGYUN 1C DEB",
        "meta_object_id": "1999-025EUP",
        "meta_epoch": "2025-11-26T11:13:58.529856",
        "meta_mean_motion": 14.48569792,
        "meta_eccentricity": 0.01649657,
        "meta_inclination": 98.4067,
        "meta_ra_of_asc_node": 45.9896,
        "meta_arg_of_pericenter": 40.0513,
        "meta_mean_anomaly": 321.2709,
        "meta_ephemeris_type": 0,
        "meta_classification_type": "U",
        "meta_norad_cat_id": 38799,
        "meta_element_set_no": 999,
        "meta_rev_at_epoch": 63803,
        "meta_bstar": 0.00099755644,
        "meta_mean_motion_dot": 4.406e-05,
        "meta_mean_motion_ddot": 0,
        "tle_line1": "1 38799U 99025EUP 25330.46803854  .00004406  00000+0  99756-3 0  9994",
        "tle_line2": "2 38799  98.4067  45.9896 0164965  40.0513 321.2709 14.48569792638036"
      },
      "geometry": {
        "type": "Point",
        "coordinates": [
          -127.98135558475508,
          -4.572782942203786
        ]
      }
    },
    {
      "type": "Feature",
      "properties": {
        "norad_id": 38801,
        "name": "FENGYUN 1C DEB",
        "group": "fengyun-1c-debris",
        "lat": -19.643917169010322,
        "lon": -154.7740435139723,
        "alt_km": 1064.6211770095952,
        "timestamp": "2025-12-03T04:52:29.927368+00:00",
        "meta_object_name": "FENGYUN 1C DEB",
        "meta_object_id": "1999-025EUR",
        "meta_epoch": "2025-11-30T22:34:32.153088",
        "meta_mean_motion": 14.2473338,
        "meta_eccentricity": 0.03480153,
        "meta_inclination": 98.3753,
        "meta_ra_of_asc_node": 26.0769,
        "meta_arg_of_pericenter": 26.6828,
        "meta_mean_anomaly": 95.3295,
        "meta_ephemeris_type": 0,
        "meta_classification_type": "U",
        "meta_norad_cat_id": 38801,
        "meta_element_set_no": 999,
        "meta_rev_at_epoch": 64192,
        "meta_bstar": 0.00055786382,
        "meta_mean_motion_dot": 2.4e-05,
        "meta_mean_motion_ddot": 0,
        "tle_line1": "1 38801U 99025EUR 25334.94064992  .00002400  00000+0  55786-3 0  9994",
        "tle_line2": "2 38801  98.3753  26.0769 0348015  26.6828  95.3295 14.24733380641920"
      },
      "geometry": {
        "type": "Point",
        "coordinates": [
          -154.7740435139723,
          -19.643917169010322
        ]
      }
    },
    {
      "type": "Feature",
      "properties": {
        "norad_id": 38803,
        "name": "FENGYUN 1C DEB",
        "group": "fengyun-1c-debris",
        "lat": 68.78335633772416,
        "lon": -174.8291934619547,
        "alt_km": 774.2764773043991,
        "timestamp": "2025-12-03T04:52:29.927378+00:00",
        "meta_object_name": "FENGYUN 1C DEB",
        "meta_object_id": "1999-025EUT",
        "meta_epoch": "2025-12-02T11:30:01.394784",
        "meta_mean_motion": 14.23511313,
        "meta_eccentricity": 0.00643676,
        "meta_inclination": 99.137,
        "meta_ra_of_asc_node": 339.9272,
        "meta_arg_of_pericenter": 65.5394,
        "meta_mean_anomaly": 295.2479,
        "meta_ephemeris_type": 0,
        "meta_classification_type": "U",
        "meta_norad_cat_id": 38803,
        "meta_element_set_no": 999,
        "meta_rev_at_epoch": 60066,
        "meta_bstar": 0.0024410624,
        "meta_mean_motion_dot": 5.629e-05,
        "meta_mean_motion_ddot": 0,
        "tle_line1": "1 38803U 99025EUT 25336.47918281  .00005629  00000+0  24411-2 0  9991",
        "tle_line2": "2 38803  99.1370 339.9272 0064367  65.5394 295.2479 14.23511313600666"
      },
      "geometry": {
        "type": "Point",
        "coordinates": [
          -174.8291934619547,
          68.78335633772416
        ]
      }
    },
    {
      "type": "Feature",
      "properties": {
        "norad_id": 38809,
        "name": "FENGYUN 1C DEB",
        "group": "fengyun-1c-debris",
        "lat": -64.26484171007947,
        "lon": 149.39576482205388,
        "alt_km": 890.8367190758017,
        "timestamp": "2025-12-03T04:52:29.927388+00:00",
        "meta_object_name": "FENGYUN 1C DEB",
        "meta_object_id": "1999-025EUZ",
        "meta_epoch": "2025-11-30T06:16:57.351360",
        "meta_mean_motion": 14.1810945,
        "meta_eccentricity": 0.0223582,
        "meta_inclination": 98.5903,
        "meta_ra_of_asc_node": 344.8226,
        "meta_arg_of_pericenter": 4.0762,
        "meta_mean_anomaly": 356.2169,
        "meta_ephemeris_type": 0,
        "meta_classification_type": "U",
        "meta_norad_cat_id": 38809,
        "meta_element_set_no": 999,
        "meta_rev_at_epoch": 69029,
        "meta_bstar": 0.00062054472,
        "meta_mean_motion_dot": 1.585e-05,
        "meta_mean_motion_ddot": 0,
        "tle_line1": "1 38809U 99025EUZ 25334.26177490  .00001585  00000+0  62054-3 0  9994",
        "tle_line2": "2 38809  98.5903 344.8226 0223582   4.0762 356.2169 14.18109450690295"
      },
      "geometry": {
        "type": "Point",
        "coordinates": [
          149.39576482205388,
          -64.26484171007947
        ]
      }
    },
    {
      "type": "Feature",
      "properties": {
        "norad_id": 38813,
        "name": "FENGYUN 1C DEB",
        "group": "fengyun-1c-debris",
        "lat": -75.05876154203654,
        "lon": 11.941730788297075,
        "alt_km": 835.712887151547,
        "timestamp": "2025-12-03T04:52:29.927398+00:00",
        "meta_object_name": "FENGYUN 1C DEB",
        "meta_object_id": "1999-025EVD",
        "meta_epoch": "2025-12-01T17:44:02.872896",
        "meta_mean_motion": 14.20124404,
        "meta_eccentricity": 0.00061305,
        "meta_inclination": 99.3455,
        "meta_ra_of_asc_node": 332.2907,
        "meta_arg_of_pericenter": 143.0544,
        "meta_mean_anomaly": 217.1054,
        "meta_ephemeris_type": 0,
        "meta_classification_type": "U",
        "meta_norad_cat_id": 38813,
        "meta_element_set_no": 999,
        "meta_rev_at_epoch": 48094,
        "meta_bstar": 0.00057863014,
        "meta_mean_motion_dot": 1.185e-05,
        "meta_mean_motion_ddot": 0,
        "tle_line1": "1 38813U 99025EVD 25335.73892214  .00001185  00000+0  57863-3 0  9998",
        "tle_line2": "2 38813  99.3455 332.2907 0006130 143.0544 217.1054 14.20124404480944"
      },
      "geometry": {
        "type": "Point",
        "coordinates": [
          11.941730788297075,
          -75.05876154203654
        ]
      }
    },
    {
      "type": "Feature",
      "properties": {
        "norad_id": 38817,
        "name": "FENGYUN 1C DEB",
        "group": "fengyun-1c-debris",
        "lat": -75.92554321214473,
        "lon": -8.406068156198058,
        "alt_km": 1264.218198549289,
        "timestamp": "2025-12-03T04:52:29.927408+00:00",
        "meta_object_name": "FENGYUN 1C DEB",
        "meta_object_id": "1999-025EVH",
        "meta_epoch": "2025-12-02T09:55:45.901344",
        "meta_mean_motion": 13.57635358,
        "meta_eccentricity": 0.02907624,
        "meta_inclination": 98.6004,
        "meta_ra_of_asc_node": 208.0318,
        "meta_arg_of_pericenter": 71.2126,
        "meta_mean_anomaly": 292.0321,
        "meta_ephemeris_type": 0,
        "meta_classification_type": "U",
        "meta_norad_cat_id": 38817,
        "meta_element_set_no": 999,
        "meta_rev_at_epoch": 65694,
        "meta_bstar": 0.0023316754,
        "meta_mean_motion_dot": 2.171e-05,
        "meta_mean_motion_ddot": 0,
        "tle_line1": "1 38817U 99025EVH 25336.41372571  .00002171  00000+0  23317-2 0  9999",
        "tle_line2": "2 38817  98.6004 208.0318 0290762  71.2126 292.0321 13.57635358656948"
      },
      "geometry": {
        "type": "Point",
        "coordinates": [
          -8.406068156198058,
          -75.92554321214473
        ]
      }
    }
  ]
}